H1 CPF 01  gfz 2022 06 21 00  6721 tandemx   
H2 1003001  6202 36605    2022 06 21 00 59 42 2022 06 26 00 00 42   120 1 1  0 0 0
H9
10 0 59752  66222.000000  0    6856479.878   -673074.660     51714.745
10 0 59752  66342.000000  0    6769745.402   -843016.190    953845.555
10 0 59752  66462.000000  0    6561844.000   -995642.397   1839182.514
10 0 59752  66582.000000  0    6236730.171  -1126195.500   2692131.550
10 0 59752  66702.000000  0    5800508.204  -1230394.055   3497671.364
10 0 59752  66822.000000  0    5261311.243  -1304544.938   4241623.723
10 0 59752  66942.000000  0    4629140.882  -1345642.793   4910907.154
10 0 59752  67062.000000  0    3915671.471  -1351452.311   5493767.494
10 0 59752  67182.000000  0    3134025.322  -1320572.569   5979982.662
10 0 59752  67302.000000  0    2298522.677  -1252483.149   6361037.401
10 0 59752  67422.000000  0    1424413.960  -1147570.547   6630266.709
10 0 59752  67542.000000  0     527597.058  -1007134.439   6782967.321
10 0 59752  67662.000000  0    -375674.076   -833372.899   6816474.052
10 0 59752  67782.000000  0   -1269083.478   -629348.065   6730202.127
10 0 59752  67902.000000  0   -2136546.415   -398932.322   6525656.488
10 0 59752  68022.000000  0   -2962497.535   -146735.460   6206407.450
10 0 59752  68142.000000  0   -3732170.644    121985.836   5778033.504
10 0 59752  68262.000000  0   -4431866.235    401434.655   5248030.035
10 0 59752  68382.000000  0   -5049201.118    685395.010   4625683.989
10 0 59752  68502.000000  0   -5573335.774    967365.301   3921916.274
10 0 59752  68622.000000  0   -5995173.299   1240701.685   3149092.902
10 0 59752  68742.000000  0   -6307526.617   1498768.112   2320809.147
10 0 59752  68862.000000  0   -6505250.093   1735089.244   1451648.643
10 0 59752  68982.000000  0   -6585332.178   1943503.130    556921.830
10 0 59752  69102.000000  0   -6546944.680   2118309.610   -347612.047
10 0 59752  69222.000000  0   -6391447.194   2254409.559  -1246031.565
10 0 59752  69342.000000  0   -6122347.733   2347432.305  -2122541.782
10 0 59752  69462.000000  0   -5745220.899   2393848.478  -2961760.057
10 0 59752  69582.000000  0   -5267583.786   2391064.530  -3748992.089
10 0 59752  69702.000000  0   -4698735.083   2337496.207  -4470490.609
10 0 59752  69822.000000  0   -4049562.770   2232620.436  -5113692.680
10 0 59752  69942.000000  0   -3332325.457   2077005.057  -5667431.279
10 0 59752  70062.000000  0   -2560414.272   1872316.246  -6122119.284
10 0 59752  70182.000000  0   -1748098.623   1621303.532  -6469905.497
10 0 59752  70302.000000  0    -910260.345   1327762.582  -6704797.875
10 0 59752  70422.000000  0     -62124.331    996477.178  -6822755.611
10 0 59752  70542.000000  0     781011.644    633142.071  -6821750.363
10 0 59752  70662.000000  0    1604045.889    244267.280  -6701799.580
10 0 59752  70782.000000  0    2392338.149   -162936.134  -6464965.849
10 0 59752  70902.000000  0    3131964.138   -580685.792  -6115325.351
10 0 59752  71022.000000  0    3809958.843  -1000772.243  -5658904.611
10 0 59752  71142.000000  0    4414542.499  -1414715.107  -5103586.840
10 0 59752  71262.000000  0    4935329.442  -1813930.664  -4458988.140
10 0 59752  71382.000000  0    5363513.385  -2189906.825  -3736301.759
10 0 59752  71502.000000  0    5692025.822  -2534381.732  -2948113.069
10 0 59752  71622.000000  0    5915663.719  -2839522.601  -2108186.275
10 0 59752  71742.000000  0    6031181.949  -3098100.472  -1231226.170
10 0 59752  71862.000000  0    6037348.566  -3303656.472   -332619.867
10 0 59752  71982.000000  0    5934960.508  -3450655.705    571837.792
10 0 59752  72102.000000  0    5726819.130  -3534624.590   1466228.636
10 0 59752  72222.000000  0    5417664.758  -3552267.472   2334801.633
10 0 59752  72342.000000  0    5014069.965  -3501558.200   3162258.877
10 0 59752  72462.000000  0    4524298.029  -3381805.854   3934032.132
10 0 59752  72582.000000  0    3958129.631  -3193692.173   4636543.738
10 0 59752  72702.000000  0    3326661.370  -2939281.961   5257448.881
10 0 59752  72822.000000  0    2642080.188  -2622003.504   5785851.659
10 0 59752  72942.000000  0    1917422.167  -2246601.230   6212492.639
10 0 59752  73062.000000  0    1166319.313  -1819062.654   6529905.773
10 0 59752  73182.000000  0     402739.922  -1346520.443   6732543.096
10 0 59752  73302.000000  0    -359272.432   -837131.264   6816865.785
10 0 59752  73422.000000  0   -1105856.694   -299933.909   6781401.402
10 0 59752  73542.000000  0   -1823585.264    255310.842   6626767.841
10 0 59752  73662.000000  0   -2499704.600    818297.118   6355663.369
10 0 59752  73782.000000  0   -3122361.962   1378364.309   5972822.761
10 0 59752  73902.000000  0   -3680814.932   1924698.027   5484940.183
10 0 59752  74022.000000  0   -4165621.135   2446539.036   4900558.949
10 0 59752  74142.000000  0   -4568804.018   2933396.936   4229927.722
10 0 59752  74262.000000  0   -4883990.765   3375262.506   3484824.138
10 0 59752  74382.000000  0   -5106518.917   3762815.500   2678350.116
10 0 59752  74502.000000  0   -5233510.083   4087623.551   1824701.408
10 0 59752  74622.000000  0   -5263908.895   4342327.037    938913.903
10 0 59752  74742.000000  0   -5198483.935   4520804.110     36591.405
10 0 59752  74862.000000  0   -5039791.676   4618311.191   -866376.877
10 0 59752  74982.000000  0   -4792104.908   4631597.567  -1754105.657
10 0 59752  75102.000000  0   -4461305.078   4558989.050  -2611002.706
10 0 59752  75222.000000  0   -4054743.135   4400437.742  -3422049.561
10 0 59752  75342.000000  0   -3581072.441   4157538.669  -4173067.802
10 0 59752  75462.000000  0   -3050059.430   3833513.592  -4850965.115
10 0 59752  75582.000000  0   -2472377.994   3433163.340  -5443957.185
10 0 59752  75702.000000  0   -1859392.829   2962791.568  -5941764.560
10 0 59752  75822.000000  0   -1222933.905   2430099.539  -6335781.475
10 0 59752  75942.000000  0    -575068.350   1844054.968  -6619212.697
10 0 59752  76062.000000  0      72125.345   1214739.552  -6787179.254
10 0 59752  76182.000000  0     706777.084    553176.477  -6836793.338
10 0 59752  76302.000000  0    1317437.928   -128858.886  -6767203.914
10 0 59752  76422.000000  0    1893282.307   -819044.567  -6579608.632
10 0 59752  76542.000000  0    2424294.836  -1504728.645  -6277234.851
10 0 59752  76662.000000  0    2901441.964  -2173155.219  -5865290.256
10 0 59752  76782.000000  0    3316825.137  -2811696.551  -5350883.719
10 0 59752  76902.000000  0    3663815.025  -3408091.393  -4742914.493
10 0 59752  77022.000000  0    3937160.708  -3950681.134  -4051927.210
10 0 59752  77142.000000  0    4133072.934  -4428639.128  -3289939.469
10 0 59752  77262.000000  0    4249281.578  -4832191.275  -2470241.584
10 0 59752  77382.000000  0    4285064.390  -5152822.084  -1607169.289
10 0 59752  77502.000000  0    4241243.657  -5383460.451   -715852.882
10 0 59752  77622.000000  0    4120152.052  -5518638.860    188051.759
10 0 59752  77742.000000  0    3925567.125  -5554622.689   1088644.521
10 0 59752  77862.000000  0    3662616.666  -5489505.648   1970069.604
10 0 59752  77982.000000  0    3337655.547  -5323266.913   2816804.275
10 0 59752  78102.000000  0    2958118.140  -5057791.125   3613939.367
10 0 59752  78222.000000  0    2532351.129  -4696849.458   4347447.892
10 0 59752  78342.000000  0    2069430.762  -4246042.823   5004435.370
10 0 59752  78462.000000  0    1578968.571  -3712708.722   5573367.048
10 0 59752  78582.000000  0    1070910.532  -3105794.333   6044268.867
10 0 59752  78702.000000  0     555333.543  -2435698.786   6408897.120
10 0 59752  78822.000000  0      42245.019  -1714089.651   6660875.830
10 0 59752  78942.000000  0    -458610.474   -953697.062   6795801.951
10 0 59752  79062.000000  0    -937935.071   -168087.371   6811318.748
10 0 59752  79182.000000  0   -1387049.364    628579.491   6707154.212
10 0 59752  79302.000000  0   -1798049.114   1421804.769   6485125.244
10 0 59752  79422.000000  0   -2163944.470   2197013.797   6149107.959
10 0 59752  79542.000000  0   -2478779.725   2939823.614   5704974.248
10 0 59752  79662.000000  0   -2737731.439   3636311.166   5160495.081
10 0 59752  79782.000000  0   -2937184.649   4273277.752   4525211.463
10 0 59752  79902.000000  0   -3074784.536   4838505.002   3810272.432
10 0 59752  80022.000000  0   -3149462.086   5320996.825   3028242.493
10 0 59752  80142.000000  0   -3161432.844   5711201.030   2192880.629
10 0 59752  80262.000000  0   -3112169.233   6001204.944   1318895.634
10 0 59752  80382.000000  0   -3004346.357   6184901.273    421682.577
10 0 59752  80502.000000  0   -2841762.592   6258120.088   -482955.650
10 0 59752  80622.000000  0   -2629237.638   6218722.252  -1379096.185
10 0 59752  80742.000000  0   -2372489.014   6066650.698  -2250988.005
10 0 59752  80862.000000  0   -2077989.300   5803936.070  -3083336.761
10 0 59752  80982.000000  0   -1752811.197   5434662.891  -3861575.330
10 0 59752  81102.000000  0   -1404464.228   4964896.012  -4572119.361
10 0 59752  81222.000000  0   -1040726.803   4402569.142  -5202600.228
10 0 59752  81342.000000  0    -669477.596   3757341.123  -5742073.457
10 0 59752  81462.000000  0    -298529.016   3040421.120  -6181200.536
10 0 59752  81582.000000  0      64533.225   2264366.301  -6512399.611
10 0 59752  81702.000000  0     412500.302   1442859.154  -6729964.098
10 0 59752  81822.000000  0     738678.634    590467.362  -6830151.995
10 0 59752  81942.000000  0    1037014.940   -277610.939  -6811243.070
10 0 59752  82062.000000  0    1302205.175  -1145813.062  -6673564.412
10 0 59752  82182.000000  0    1529786.070  -1998483.329  -6419483.916
10 0 59752  82302.000000  0    1716209.112  -2820147.546  -6053374.606
10 0 59752  82422.000000  0    1858895.975  -3595788.851  -5581549.013
10 0 59752  82542.000000  0    1956273.748  -4311122.540  -5012161.311
10 0 59752  82662.000000  0    2007789.475  -4952860.503  -4355075.857
99
